$$SOE
2459580.500000000, A.D. 2022-Jan-01 00:00:00.0000, -8.426390770255621E+07, -4.909682182861496E+08, 3.016230467966664E+07,
2459587.500000000, A.D. 2022-Jan-08 00:00:00.0000, -7.566577662910183E+07, -4.916324278200197E+08, 3.292207783724982E+07,
2459594.500000000, A.D. 2022-Jan-15 00:00:00.0000, -6.703800319635908E+07, -4.921039633001918E+08, 3.566894715333545E+07,
2459601.500000000, A.D. 2022-Jan-22 00:00:00.0000, -5.838387193418009E+07, -4.923819647455018E+08, 3.840178657012638E+07,
2459608.500000000, A.D. 2022-Jan-29 00:00:00.0000, -4.970669618157202E+07, -4.924656050190717E+08, 4.111946502184126E+07,
2459615.500000000, A.D. 2022-Feb-05 00:00:00.0000, -4.100982114948643E+07, -4.923540911896088E+08, 4.382084639516056E+07,
2459622.500000000, A.D. 2022-Feb-12 00:00:00.0000, -3.229662481634546E+07, -4.920466670230751E+08, 4.650478920953587E+07,
2459629.500000000, A.D. 2022-Feb-19 00:00:00.0000, -2.357051797999227E+07, -4.915426142382666E+08, 4.917014633305949E+07,
2459636.500000000, A.D. 2022-Feb-26 00:00:00.0000, -1.483494477643090E+07, -4.908412532513169E+08, 5.181576479560804E+07,
2459643.500000000, A.D. 2022-Mar-05 00:00:00.0000, -6.093383504887445E+06, -4.899419440277417E+08, 5.444048563464876E+07,
2459650.500000000, A.D. 2022-Mar-12 00:00:00.0000, 2.650652464046944E+06, -4.888440871093917E+08, 5.704314374835026E+07,
2459657.500000000, A.D. 2022-Mar-19 00:00:00.0000, 1.139361376998454E+07, -4.875471247899552E+08, 5.962256775211923E+07,
2459664.500000000, A.D. 2022-Mar-26 00:00:00.0000, 2.013191415846774E+07, -4.860505424469691E+08, 6.217757983649313E+07,
2459671.500000000, A.D. 2022-Apr-02 00:00:00.0000, 2.886192966072233E+07, -4.843538700887002E+08, 6.470699561632766E+07,
2459678.500000000, A.D. 2022-Apr-09 00:00:00.0000, 3.757999813122557E+07, -4.824566841138510E+08, 6.720962394770083E+07,
2459685.500000000, A.D. 2022-Apr-16 00:00:00.0000, 4.628241950152417E+07, -4.803586086325263E+08, 6.968426673428041E+07,
2459692.500000000, A.D. 2022-Apr-23 00:00:00.0000, 5.496545548253247E+07, -4.780593152657443E+08, 7.212971892899765E+07,
2459699.500000000, A.D. 2022-Apr-30 00:00:00.0000, 6.362532684690258E+07, -4.755585236689281E+08, 7.454476871944191E+07,
2459706.500000000, A.D. 2022-May-07 00:00:00.0000, 7.225821135764591E+07, -4.728560047531929E+08, 7.692819745498264E+07,
2459713.500000000, A.D. 2022-May-14 00:00:00.0000, 8.086024373691402E+07, -4.699515835684990E+08, 7.927877943728635E+07,
2459720.500000000, A.D. 2022-May-21 00:00:00.0000, 8.942751564826198E+07, -4.668451410935938E+08, 8.159528182401101E+07,
2459727.500000000, A.D. 2022-May-28 00:00:00.0000, 9.795607521752630E+07, -4.635366158955686E+08, 8.387646461311182E+07,
2459734.500000000, A.D. 2022-Jun-04 00:00:00.0000, 1.064419263728518E+08, -4.600260059758191E+08, 8.612108065883483E+07,
2459741.500000000, A.D. 2022-Jun-11 00:00:00.0000, 1.148810281516477E+08, -4.563133708035508E+08, 8.832787570829137E+07,
2459748.500000000, A.D. 2022-Jun-18 00:00:00.0000, 1.232692940164480E+08, -4.523988335260171E+08, 9.049558845790274E+07,
2459755.500000000, A.D. 2022-Jun-25 00:00:00.0000, 1.316025912130483E+08, -4.482825833905705E+08, 9.262295062591544E+07,
2459762.500000000, A.D. 2022-Jul-02 00:00:00.0000, 1.398767403096459E+08, -4.439648784461847E+08, 9.470868702505314E+07,
2459769.500000000, A.D. 2022-Jul-09 00:00:00.0000, 1.480875153124027E+08, -4.394460483497227E+08, 9.675151561597110E+07,
2459776.500000000, A.D. 2022-Jul-16 00:00:00.0000, 1.562306443075303E+08, -4.347264961965698E+08, 9.875014763722698E+07,
2459783.500000000, A.D. 2022-Jul-23 00:00:00.0000, 1.643018084368259E+08, -4.298066992998302E+08, 1.007032880217763E+08,
2459790.500000000, A.D. 2022-Jul-30 00:00:00.0000, 1.722966392968380E+08, -4.246872122729062E+08, 1.026096358198792E+08,
2459797.500000000, A.D. 2022-Aug-06 00:00:00.0000, 1.802107183680976E+08, -4.193686717686261E+08, 1.044678843533952E+08,
2459804.500000000, A.D. 2022-Aug-13 00:00:00.0000, 1.880395776595537E+08, -4.138518001231304E+08, 1.062767214050679E+08,
2459811.500000000, A.D. 2022-Aug-20 00:00:00.0000, 1.957787000070136E+08, -4.081374084107348E+08, 1.080348295489212E+08,
2459818.500000000, A.D. 2022-Aug-27 00:00:00.0000, 2.034235191019611E+08, -4.022263996387096E+08, 1.097408865594707E+08,
2459825.500000000, A.D. 2022-Sep-03 00:00:00.0000, 2.109694195071909E+08, -3.961197721944942E+08, 1.113935658713042E+08,
2459832.500000000, A.D. 2022-Sep-10 00:00:00.0000, 2.184117367581683E+08, -3.898186235229462E+08, 1.129915370859869E+08,
2459839.500000000, A.D. 2022-Sep-17 00:00:00.0000, 2.257457575887648E+08, -3.833241540361842E+08, 1.145334665265105E+08,
2459846.500000000, A.D. 2022-Sep-24 00:00:00.0000, 2.329667203518415E+08, -3.766376713069635E+08, 1.160180178325108E+08,
2459853.500000000, A.D. 2022-Oct-01 00:00:00.0000, 2.400698158858518E+08, -3.697605945675234E+08, 1.174438525755458E+08,
2459860.500000000, A.D. 2022-Oct-08 00:00:00.0000, 2.470501892469194E+08, -3.626944589916237E+08, 1.188096309034289E+08,
2459867.500000000, A.D. 2022-Oct-15 00:00:00.0000, 2.539029413869040E+08, -3.554409185605085E+08, 1.201140124011125E+08,
2459874.500000000, A.D. 2022-Oct-22 00:00:00.0000, 2.606231286078111E+08, -3.480017491954558E+08, 1.213556572341284E+08,
2459881.500000000, A.D. 2022-Oct-29 00:00:00.0000, 2.672057623030046E+08, -3.403788547470132E+08, 1.225332271363571E+08,
2459888.500000000, A.D. 2022-Nov-05 00:00:00.0000, 2.736458110990886E+08, -3.325742730958095E+08, 1.236453862770009E+08,
2459895.500000000, A.D. 2022-Nov-12 00:00:00.0000, 2.799382034491255E+08, -3.245901810939770E+08, 1.246908022947995E+08,
2459902.500000000, A.D. 2022-Nov-19 00:00:00.0000, 2.860778299735243E+08, -3.164288992967380E+08, 1.256681474918918E+08,
2459909.500000000, A.D. 2022-Nov-26 00:00:00.0000, 2.920595458270264E+08, -3.080928968757059E+08, 1.265761001352428E+08,
2459916.500000000, A.D. 2022-Dec-03 00:00:00.0000, 2.978781732746217E+08, -2.995847967185631E+08, 1.274133458540924E+08,
2459923.500000000, A.D. 2022-Dec-10 00:00:00.0000, 3.035285045390967E+08, -2.909073806885095E+08, 1.281785791355297E+08,
2459930.500000000, A.D. 2022-Dec-17 00:00:00.0000, 3.090053049621044E+08, -2.820635950592518E+08, 1.288705049184404E+08,
2459937.500000000, A.D. 2022-Dec-24 00:00:00.0000, 3.143033166052123E+08, -2.730565561802393E+08, 1.294878402743900E+08,
2459944.500000000, A.D. 2022-Dec-31 00:00:00.0000, 3.194172626660910E+08, -2.638895562511401E+08, 1.300293161549153E+08,
2459951.500000000, A.D. 2023-Jan-07 00:00:00.0000, 3.243418528512056E+08, -2.545660682278090E+08, 1.304936792762911E+08,
2459958.500000000, A.D. 2023-Jan-14 00:00:00.0000, 3.290717877572230E+08, -2.450897493463687E+08, 1.308796943666860E+08,
2459965.500000000, A.D. 2023-Jan-21 00:00:00.0000, 3.336017616351748E+08, -2.354644464189479E+08, 1.311861465786074E+08,
2459972.500000000, A.D. 2023-Jan-28 00:00:00.0000, 3.379264672249075E+08, -2.256942030739242E+08, 1.314118437169600E+08,
2459979.500000000, A.D. 2023-Feb-04 00:00:00.0000, 3.420406024724522E+08, -2.157832658890104E+08, 1.315556185534916E+08,
2459986.500000000, A.D. 2023-Feb-11 00:00:00.0000, 3.459388773558933E+08, -2.057360895863003E+08, 1.316163313813045E+08,
2459993.500000000, A.D. 2023-Feb-18 00:00:00.0000, 3.496160207756775E+08, -1.955573420858410E+08, 1.315928727518920E+08,
2460000.500000000, A.D. 2023-Feb-25 00:00:00.0000, 3.530667877900228E+08, -1.852519095498045E+08, 1.314841663600987E+08,
2460007.500000000, A.D. 2023-Mar-04 00:00:00.0000, 3.562859673144713E+08, -1.748249013654651E+08, 1.312891720708868E+08,
2460014.500000000, A.D. 2023-Mar-11 00:00:00.0000, 3.592683903300247E+08, -1.642816550303895E+08, 1.310068890862377E+08,
2460021.500000000, A.D. 2023-Mar-18 00:00:00.0000, 3.620089386612400E+08, -1.536277409503158E+08, 1.306363592438006E+08,
2460028.500000000, A.D. 2023-Mar-25 00:00:00.0000, 3.645025545397543E+08, -1.428689671546481E+08, 1.301766704233750E+08,
2460035.500000000, A.D. 2023-Apr-01 00:00:00.0000, 3.667442513878926E+08, -1.320113834897445E+08, 1.296269600518023E+08,
2460042.500000000, A.D. 2023-Apr-08 00:00:00.0000, 3.687291252164599E+08, -1.210612840153061E+08, 1.289864188605083E+08,
2460049.500000000, A.D. 2023-Apr-15 00:00:00.0000, 3.704523643074195E+08, -1.100252086598224E+08, 1.282542950175020E+08,
2460056.500000000, A.D. 2023-Apr-22 00:00:00.0000, 3.719092589926650E+08, -9.890994713484187E+07, 1.274298982130845E+08,
2460063.500000000, A.D. 2023-Apr-29 00:00:00.0000, 3.730952142610440E+08, -8.772254279784584E+07, 1.265126036241866E+08,
2460070.500000000, A.D. 2023-May-06 00:00:00.0000, 3.740057634280467E+08, -7.647029462207685E+07, 1.255018560555894E+08,
2460077.500000000, A.D. 2023-May-13 00:00:00.0000, 3.746365818821102E+08, -6.516075810489140E+07, 1.243971742647458E+08,
2460084.500000000, A.D. 2023-May-20 00:00:00.0000, 3.749835011270668E+08, -5.380174554193486E+07, 1.231981553966922E+08,
2460091.500000000, A.D. 2023-May-27 00:00:00.0000, 3.750425232938910E+08, -4.240132563094230E+07, 1.219044794948777E+08,
2460098.500000000, A.D. 2023-Jun-03 00:00:00.0000, 3.748098361530120E+08, -3.096782231213263E+07, 1.205159140686945E+08,
2460105.500000000, A.D. 2023-Jun-10 00:00:00.0000, 3.742818286183437E+08, -1.950981279113635E+07, 1.190323186963502E+08,
2460112.500000000, A.D. 2023-Jun-17 00:00:00.0000, 3.734551067926109E+08, -8.036124736910291E+06, 1.174536496297955E+08,
2460119.500000000, A.D. 2023-Jun-24 00:00:00.0000, 3.723265108263578E+08, 3.444167467635468E+06, 1.157799643537648E+08,
2460126.500000000, A.D. 2023-Jul-01 00:00:00.0000, 3.708931327866938E+08, 1.492174831704371E+07, 1.140114261168594E+08,
2460133.500000000, A.D. 2023-Jul-08 00:00:00.0000, 3.691523337982047E+08, 2.638706950598520E+07, 1.121483086282955E+08,
2460140.500000000, A.D. 2023-Jul-15 00:00:00.0000, 3.671017591114398E+08, 3.783035821527646E+07, 1.101910007794665E+08,
2460147.500000000, A.D. 2023-Jul-22 00:00:00.0000, 3.647393545412834E+08, 4.924162438174123E+07, 1.081400109512658E+08,
$$EOE